<?xml version="1.0" encoding="UTF-8"?>
<gpx version="1.1" creator="journey-map-fixture" xmlns="http://www.topografix.com/GPX/1/1">
  <trk>
    <name>Drive towards Oliena</name>
    <trkseg>
      <trkpt lat="40.7784" lon="9.6803"><time>2026-09-12T09:30:00Z</time></trkpt>
      <trkpt lat="40.4581" lon="9.6773"><time>2026-09-12T11:15:00Z</time></trkpt>
      <trkpt lat="40.2861" lon="9.4039"><time>2026-09-12T13:00:00Z</time></trkpt>
    </trkseg>
  </trk>
  <wpt lat="40.7784" lon="9.6803"><name>San Teodoro</name></wpt>
  <wpt lat="40.4581" lon="9.6773"><name>Marina di Orosei</name></wpt>
  <wpt lat="40.2861" lon="9.4039"><name>Oliena</name></wpt>
</gpx>
