<?xml version="1.0" encoding="UTF-8"?>
<gpx version="1.1" creator="journey-map-fixture" xmlns="http://www.topografix.com/GPX/1/1">
  <trk>
    <name>Hiking to Punta Corrasi</name>
    <trkseg>
      <trkpt lat="40.2861" lon="9.4039"><time>2026-09-13T06:30:00Z</time></trkpt>
      <trkpt lat="40.3050" lon="9.4100"><time>2026-09-13T08:00:00Z</time></trkpt>
      <trkpt lat="40.3200" lon="9.4250"><time>2026-09-13T10:00:00Z</time></trkpt>
    </trkseg>
  </trk>
  <wpt lat="40.3200" lon="9.4250"><name>Punta Corrasi</name></wpt>
</gpx>
