<?xml version="1.0"?>
<gpx xmlns="http://www.topografix.com/GPX/1/1" xmlns:gpxx="http://www.garmin.com/xmlschemas/GpxExtensions/v3" creator="CALTOPO" version="1.1"><metadata><name><![CDATA[Monte Corrasi da Oliena]]></name></metadata><trk><name>Monte Corrasi da Oliena</name><trkseg><trkpt lat="40.26968905980912" lon="9.40913252517722"/><trkpt lat="40.27" lon="9.4095"/><trkpt lat="40.27" lon="9.4095"/><trkpt lat="40.2698" lon="9.40995"/><trkpt lat="40.26965" lon="9.41088"/><trkpt lat="40.26959" lon="9.41103"/><trkpt lat="40.26961" lon="9.4112"/><trkpt lat="40.26971" lon="9.41148"/><trkpt lat="40.26986" lon="9.41173"/><trkpt lat="40.27002" lon="9.41204"/><trkpt lat="40.27002" lon="9.41204"/><trkpt lat="40.26996" lon="9.41228"/><trkpt lat="40.26992" lon="9.41283"/><trkpt lat="40.26985" lon="9.41318"/><trkpt lat="40.26967" lon="9.41378"/><trkpt lat="40.26952" lon="9.41396"/><trkpt lat="40.26951" lon="9.41404"/><trkpt lat="40.26961" lon="9.41427"/><trkpt lat="40.26968" lon="9.41462"/><trkpt lat="40.26950733852331" lon="9.416237565242312"/><trkpt lat="40.26950733852331" lon="9.416237565242312"/><trkpt lat="40.26949" lon="9.4164"/><trkpt lat="40.26996" lon="9.41693"/><trkpt lat="40.26989" lon="9.41717"/><trkpt lat="40.26979" lon="9.41726"/><trkpt lat="40.26979" lon="9.41726"/><trkpt lat="40.26979" lon="9.41726"/><trkpt lat="40.26906" lon="9.41709"/><trkpt lat="40.26906" lon="9.41709"/><trkpt lat="40.26906" lon="9.41709"/><trkpt lat="40.26905" lon="9.41719"/><trkpt lat="40.26912" lon="9.41733"/><trkpt lat="40.26914" lon="9.41744"/><trkpt lat="40.26908" lon="9.41761"/><trkpt lat="40.269" lon="9.41769"/><trkpt lat="40.26879" lon="9.41776"/><trkpt lat="40.26869" lon="9.41785"/><trkpt lat="40.2686" lon="9.41811"/><trkpt lat="40.26858" lon="9.41821"/><trkpt lat="40.26852" lon="9.4183"/><trkpt lat="40.26822" lon="9.41848"/><trkpt lat="40.26817" lon="9.41861"/><trkpt lat="40.26804" lon="9.41933"/><trkpt lat="40.26804" lon="9.41953"/><trkpt lat="40.26796" lon="9.42003"/><trkpt lat="40.26854" lon="9.42038"/><trkpt lat="40.26865" lon="9.42053"/><trkpt lat="40.2688" lon="9.42096"/><trkpt lat="40.26913" lon="9.42137"/><trkpt lat="40.26927" lon="9.42163"/><trkpt lat="40.2693" lon="9.42188"/><trkpt lat="40.26937716580274" lon="9.422154903044323"/><trkpt lat="40.26938436111548" lon="9.422180536345966"/><trkpt lat="40.26946" lon="9.42245"/><trkpt lat="40.26944" lon="9.42257"/><trkpt lat="40.26944" lon="9.42257"/><trkpt lat="40.26926" lon="9.4224"/><trkpt lat="40.26886" lon="9.42224"/><trkpt lat="40.26848" lon="9.42201"/><trkpt lat="40.26766" lon="9.42182"/><trkpt lat="40.26739" lon="9.42213"/><trkpt lat="40.2669" lon="9.42234"/><trkpt lat="40.26657" lon="9.42233"/><trkpt lat="40.2661" lon="9.42177"/><trkpt lat="40.26552" lon="9.42188"/><trkpt lat="40.26503" lon="9.42184"/><trkpt lat="40.2644" lon="9.42158"/><trkpt lat="40.2643570191437" lon="9.42154473365637"/><trkpt lat="40.26435701925395" lon="9.421544733656368"/><trkpt lat="40.26401" lon="9.42126"/><trkpt lat="40.26379" lon="9.42126"/><trkpt lat="40.26379" lon="9.42126"/><trkpt lat="40.26357" lon="9.42135"/><trkpt lat="40.26325" lon="9.42132"/><trkpt lat="40.26318" lon="9.42138"/><trkpt lat="40.263" lon="9.42146"/><trkpt lat="40.26297" lon="9.42152"/><trkpt lat="40.26291" lon="9.42153"/><trkpt lat="40.26291" lon="9.42153"/><trkpt lat="40.26276" lon="9.42143"/><trkpt lat="40.26276" lon="9.42143"/><trkpt lat="40.26269" lon="9.42134"/><trkpt lat="40.26263" lon="9.4212"/><trkpt lat="40.26251" lon="9.42119"/><trkpt lat="40.26247" lon="9.42155"/><trkpt lat="40.2624" lon="9.42166"/><trkpt lat="40.26218" lon="9.42153"/><trkpt lat="40.26208" lon="9.42138"/><trkpt lat="40.26206" lon="9.42122"/><trkpt lat="40.26207" lon="9.42109"/><trkpt lat="40.262" lon="9.42092"/><trkpt lat="40.26195" lon="9.42094"/><trkpt lat="40.26188" lon="9.42105"/><trkpt lat="40.26184" lon="9.42116"/><trkpt lat="40.26182" lon="9.42135"/><trkpt lat="40.26173" lon="9.4215"/><trkpt lat="40.26167" lon="9.4217"/><trkpt lat="40.26162" lon="9.42177"/><trkpt lat="40.26155" lon="9.42168"/><trkpt lat="40.26148" lon="9.42155"/><trkpt lat="40.26146" lon="9.42145"/><trkpt lat="40.26151" lon="9.42112"/><trkpt lat="40.2615" lon="9.42098"/><trkpt lat="40.26136" lon="9.42075"/><trkpt lat="40.2613" lon="9.42075"/><trkpt lat="40.26124" lon="9.42089"/><trkpt lat="40.26121" lon="9.42111"/><trkpt lat="40.26116" lon="9.4212"/><trkpt lat="40.2611" lon="9.42126"/><trkpt lat="40.26102" lon="9.42126"/><trkpt lat="40.2609" lon="9.42091"/><trkpt lat="40.26084" lon="9.42087"/><trkpt lat="40.26075" lon="9.42085"/><trkpt lat="40.26071" lon="9.42094"/><trkpt lat="40.2607" lon="9.42118"/><trkpt lat="40.26067" lon="9.42123"/><trkpt lat="40.26048" lon="9.42133"/><trkpt lat="40.26039" lon="9.42142"/><trkpt lat="40.26028" lon="9.4215"/><trkpt lat="40.25953" lon="9.42185"/><trkpt lat="40.25947" lon="9.42191"/><trkpt lat="40.25935" lon="9.42213"/><trkpt lat="40.25921" lon="9.42215"/><trkpt lat="40.25913" lon="9.42223"/><trkpt lat="40.25901" lon="9.42231"/><trkpt lat="40.25862" lon="9.42242"/><trkpt lat="40.2585" lon="9.42242"/><trkpt lat="40.25839" lon="9.42233"/><trkpt lat="40.25817" lon="9.42226"/><trkpt lat="40.25794" lon="9.42214"/><trkpt lat="40.257756751513455" lon="9.422087643289558"/><trkpt lat="40.25775675164446" lon="9.422087643289558"/><trkpt lat="40.25766" lon="9.42206"/><trkpt lat="40.25742" lon="9.42188"/><trkpt lat="40.25725" lon="9.42179"/><trkpt lat="40.25705" lon="9.42176"/><trkpt lat="40.25705" lon="9.42176"/><trkpt lat="40.25674" lon="9.42209"/><trkpt lat="40.25633" lon="9.42242"/><trkpt lat="40.25613" lon="9.4225"/><trkpt lat="40.25601" lon="9.42252"/><trkpt lat="40.25562" lon="9.42243"/><trkpt lat="40.25558" lon="9.42246"/><trkpt lat="40.25558" lon="9.4225"/><trkpt lat="40.2562" lon="9.42302"/><trkpt lat="40.25672" lon="9.42331"/><trkpt lat="40.25771" lon="9.42359"/><trkpt lat="40.25811" lon="9.42383"/><trkpt lat="40.25852" lon="9.42399"/><trkpt lat="40.25853" lon="9.42406"/><trkpt lat="40.25853" lon="9.42406"/><trkpt lat="40.2585" lon="9.42409"/><trkpt lat="40.25827" lon="9.42402"/><trkpt lat="40.25792" lon="9.42406"/><trkpt lat="40.2575" lon="9.42416"/><trkpt lat="40.25741" lon="9.42424"/><trkpt lat="40.25747" lon="9.42435"/><trkpt lat="40.2579" lon="9.42437"/><trkpt lat="40.25837" lon="9.42444"/><trkpt lat="40.25912" lon="9.42474"/><trkpt lat="40.25913" lon="9.42478"/><trkpt lat="40.25907" lon="9.42483"/><trkpt lat="40.25876" lon="9.42483"/><trkpt lat="40.2584" lon="9.42489"/><trkpt lat="40.25751" lon="9.42506"/><trkpt lat="40.25746" lon="9.42512"/><trkpt lat="40.2575" lon="9.42517"/><trkpt lat="40.25832" lon="9.42523"/><trkpt lat="40.25858" lon="9.4252"/><trkpt lat="40.25861" lon="9.42525"/><trkpt lat="40.25854" lon="9.42536"/><trkpt lat="40.25837" lon="9.42535"/><trkpt lat="40.25707" lon="9.42573"/><trkpt lat="40.257046123279245" lon="9.42573056849335"/><trkpt lat="40.25704612334915" lon="9.42573056849335"/><trkpt lat="40.25665" lon="9.42574"/><trkpt lat="40.25647" lon="9.42567"/><trkpt lat="40.25635" lon="9.42568"/><trkpt lat="40.25621" lon="9.42587"/><trkpt lat="40.25606" lon="9.42598"/><trkpt lat="40.25604" lon="9.42605"/><trkpt lat="40.25604" lon="9.42605"/><trkpt lat="40.25566" lon="9.4256"/><trkpt lat="40.25545" lon="9.42546"/><trkpt lat="40.25538" lon="9.42537"/><trkpt lat="40.2553" lon="9.42533"/><trkpt lat="40.25529969048838" lon="9.425330088431892"/><trkpt lat="40.255168794523264" lon="9.42480504512787"/><trkpt lat="40.25529645814884" lon="9.425331011957969"/><trkpt lat="40.25523" lon="9.42535"/><trkpt lat="40.25518" lon="9.42541"/><trkpt lat="40.25506" lon="9.42528"/><trkpt lat="40.25499" lon="9.42525"/><trkpt lat="40.2548" lon="9.42523"/><trkpt lat="40.2548" lon="9.42523"/><trkpt lat="40.2548" lon="9.42523"/><trkpt lat="40.25451" lon="9.42526"/><trkpt lat="40.25438" lon="9.4253"/><trkpt lat="40.25425" lon="9.42542"/><trkpt lat="40.25417" lon="9.42553"/><trkpt lat="40.25378" lon="9.4257"/><trkpt lat="40.25363" lon="9.4257"/><trkpt lat="40.25343" lon="9.42581"/><trkpt lat="40.25294" lon="9.42575"/><trkpt lat="40.25264" lon="9.42581"/><trkpt lat="40.25256" lon="9.42588"/><trkpt lat="40.25222" lon="9.42604"/><trkpt lat="40.25203" lon="9.42607"/><trkpt lat="40.25172" lon="9.42627"/><trkpt lat="40.25172" lon="9.42627"/><trkpt lat="40.25156" lon="9.42641"/><trkpt lat="40.25141" lon="9.42642"/><trkpt lat="40.25136" lon="9.42646"/><trkpt lat="40.25122" lon="9.42666"/><trkpt lat="40.25107" lon="9.42682"/><trkpt lat="40.25039" lon="9.42726"/><trkpt lat="40.24975" lon="9.42736"/><trkpt lat="40.24955" lon="9.42731"/><trkpt lat="40.24955" lon="9.42731"/><trkpt lat="40.24947" lon="9.42728"/><trkpt lat="40.24932" lon="9.42733"/><trkpt lat="40.24910864352076" lon="9.427486812871688"/><trkpt lat="40.24910864352076" lon="9.427486812871688"/><trkpt lat="40.24901" lon="9.42756"/><trkpt lat="40.24854" lon="9.42784"/><trkpt lat="40.24842" lon="9.42794"/><trkpt lat="40.24838" lon="9.42802"/><trkpt lat="40.24835" lon="9.42821"/><trkpt lat="40.24835" lon="9.42821"/><trkpt lat="40.24827" lon="9.42828"/><trkpt lat="40.24823" lon="9.42837"/><trkpt lat="40.24799" lon="9.42843"/><trkpt lat="40.24766" lon="9.42884"/><trkpt lat="40.24766" lon="9.42884"/><trkpt lat="40.24718" lon="9.42941"/><trkpt lat="40.24716" lon="9.42953"/><trkpt lat="40.24711" lon="9.42954"/><trkpt lat="40.24708" lon="9.42961"/><trkpt lat="40.24688" lon="9.4299"/><trkpt lat="40.24679" lon="9.42978"/><trkpt lat="40.2467" lon="9.42982"/><trkpt lat="40.24669" lon="9.42991"/><trkpt lat="40.2466" lon="9.42989"/><trkpt lat="40.24658" lon="9.42993"/><trkpt lat="40.24644" lon="9.42992"/><trkpt lat="40.24638" lon="9.42996"/><trkpt lat="40.24622" lon="9.42991"/><trkpt lat="40.24618" lon="9.43001"/><trkpt lat="40.24619" lon="9.43008"/><trkpt lat="40.24613" lon="9.43006"/><trkpt lat="40.24599" lon="9.43011"/><trkpt lat="40.24599" lon="9.43011"/><trkpt lat="40.24597" lon="9.43011"/><trkpt lat="40.24597" lon="9.43017"/><trkpt lat="40.24588" lon="9.4303"/><trkpt lat="40.24583" lon="9.43031"/><trkpt lat="40.24586" lon="9.43038"/><trkpt lat="40.24593" lon="9.43043"/><trkpt lat="40.24591" lon="9.43052"/><trkpt lat="40.24573778291859" lon="9.430747013425503"/><trkpt lat="40.24573778291859" lon="9.430747013425503"/><trkpt lat="40.24569" lon="9.43081"/><trkpt lat="40.24543" lon="9.43098"/><trkpt lat="40.24543" lon="9.43098"/><trkpt lat="40.24514" lon="9.43119"/><trkpt lat="40.24478" lon="9.43137"/><trkpt lat="40.24467" lon="9.4315"/><trkpt lat="40.24457" lon="9.43164"/><trkpt lat="40.24449" lon="9.4318"/><trkpt lat="40.24435" lon="9.43226"/><trkpt lat="40.24419" lon="9.43238"/><trkpt lat="40.24405" lon="9.43264"/><trkpt lat="40.24389" lon="9.43274"/><trkpt lat="40.24375" lon="9.43279"/><trkpt lat="40.24359" lon="9.43276"/><trkpt lat="40.24347" lon="9.43262"/><trkpt lat="40.24347" lon="9.43262"/><trkpt lat="40.24342" lon="9.43256"/><trkpt lat="40.24339" lon="9.43245"/><trkpt lat="40.24328" lon="9.43234"/><trkpt lat="40.24318" lon="9.43228"/><trkpt lat="40.24309" lon="9.43216"/><trkpt lat="40.24308" lon="9.43207"/><trkpt lat="40.24302" lon="9.43201"/><trkpt lat="40.24299" lon="9.43188"/><trkpt lat="40.24288" lon="9.43179"/><trkpt lat="40.24282" lon="9.43157"/><trkpt lat="40.24283968540964" lon="9.431432202132516"/><trkpt lat="40.242839685409685" lon="9.431432202132516"/><trkpt lat="40.24282" lon="9.43157"/><trkpt lat="40.24288" lon="9.43179"/><trkpt lat="40.24299" lon="9.43188"/><trkpt lat="40.24302" lon="9.43201"/><trkpt lat="40.24308" lon="9.43207"/><trkpt lat="40.24309" lon="9.43216"/><trkpt lat="40.24318" lon="9.43228"/><trkpt lat="40.24328" lon="9.43234"/><trkpt lat="40.24339" lon="9.43245"/><trkpt lat="40.24342" lon="9.43256"/><trkpt lat="40.24347" lon="9.43262"/><trkpt lat="40.24347" lon="9.43262"/><trkpt lat="40.24334" lon="9.43267"/><trkpt lat="40.24309" lon="9.4327"/><trkpt lat="40.2426" lon="9.43293"/><trkpt lat="40.24248" lon="9.43293"/><trkpt lat="40.24236" lon="9.43299"/><trkpt lat="40.24236" lon="9.43299"/><trkpt lat="40.24232" lon="9.43299"/><trkpt lat="40.24215" lon="9.43313"/><trkpt lat="40.24206" lon="9.43312"/><trkpt lat="40.24193" lon="9.43325"/><trkpt lat="40.24174" lon="9.43321"/><trkpt lat="40.24174" lon="9.43321"/><trkpt lat="40.24166" lon="9.4332"/><trkpt lat="40.24131" lon="9.43326"/><trkpt lat="40.24118" lon="9.43324"/><trkpt lat="40.241" lon="9.4332"/><trkpt lat="40.24078" lon="9.43305"/><trkpt lat="40.24054" lon="9.43298"/><trkpt lat="40.23992" lon="9.43265"/><trkpt lat="40.23976" lon="9.43263"/><trkpt lat="40.23969" lon="9.43267"/><trkpt lat="40.23937" lon="9.43253"/><trkpt lat="40.23926" lon="9.43251"/><trkpt lat="40.23915" lon="9.43253"/><trkpt lat="40.23891" lon="9.43267"/><trkpt lat="40.23883" lon="9.43265"/><trkpt lat="40.23866" lon="9.43248"/><trkpt lat="40.23861" lon="9.43246"/><trkpt lat="40.23803" lon="9.43252"/><trkpt lat="40.23769" lon="9.43248"/><trkpt lat="40.23759" lon="9.43256"/><trkpt lat="40.23749" lon="9.43257"/><trkpt lat="40.23739" lon="9.43264"/><trkpt lat="40.23721" lon="9.43264"/><trkpt lat="40.23685" lon="9.43253"/><trkpt lat="40.2366" lon="9.43263"/><trkpt lat="40.2363" lon="9.43282"/><trkpt lat="40.2363" lon="9.43282"/><trkpt lat="40.2362" lon="9.43289"/><trkpt lat="40.23618" lon="9.43294"/><trkpt lat="40.23606" lon="9.43293"/><trkpt lat="40.23592" lon="9.43304"/><trkpt lat="40.2358" lon="9.43307"/><trkpt lat="40.23547" lon="9.43289"/><trkpt lat="40.23535" lon="9.43286"/><trkpt lat="40.23526" lon="9.43288"/><trkpt lat="40.2352" lon="9.43306"/><trkpt lat="40.23516" lon="9.43312"/><trkpt lat="40.23511" lon="9.43315"/><trkpt lat="40.23511" lon="9.43315"/><trkpt lat="40.23476" lon="9.43302"/><trkpt lat="40.2347" lon="9.43306"/><trkpt lat="40.23463" lon="9.43318"/><trkpt lat="40.23447" lon="9.43332"/><trkpt lat="40.2343" lon="9.43335"/><trkpt lat="40.23421" lon="9.43326"/><trkpt lat="40.23411" lon="9.43329"/><trkpt lat="40.23388" lon="9.43324"/><trkpt lat="40.23334" lon="9.43327"/><trkpt lat="40.23302" lon="9.43324"/><trkpt lat="40.23286" lon="9.43321"/><trkpt lat="40.23278" lon="9.43317"/><trkpt lat="40.23278" lon="9.43317"/><trkpt lat="40.23271" lon="9.43318"/><trkpt lat="40.23251" lon="9.4333"/><trkpt lat="40.23235" lon="9.43347"/><trkpt lat="40.23211" lon="9.43356"/><trkpt lat="40.23202" lon="9.43363"/><trkpt lat="40.23198" lon="9.4337"/><trkpt lat="40.23184" lon="9.43375"/><trkpt lat="40.23182" lon="9.43384"/><trkpt lat="40.2318" lon="9.43387"/><trkpt lat="40.23172" lon="9.43383"/><trkpt lat="40.23164" lon="9.43389"/><trkpt lat="40.23147" lon="9.43392"/><trkpt lat="40.23138" lon="9.4339"/><trkpt lat="40.23138" lon="9.4339"/><trkpt lat="40.23134" lon="9.43379"/><trkpt lat="40.23138" lon="9.43369"/><trkpt lat="40.23177" lon="9.43313"/><trkpt lat="40.23177" lon="9.43313"/><trkpt lat="40.2322" lon="9.43244"/><trkpt lat="40.23229" lon="9.43241"/><trkpt lat="40.23254" lon="9.4322"/><trkpt lat="40.23271" lon="9.4321"/><trkpt lat="40.23273" lon="9.43204"/><trkpt lat="40.23272" lon="9.43197"/><trkpt lat="40.23306" lon="9.43186"/><trkpt lat="40.23322" lon="9.43159"/><trkpt lat="40.23334" lon="9.43152"/><trkpt lat="40.23346" lon="9.43139"/><trkpt lat="40.23361" lon="9.43134"/><trkpt lat="40.23359" lon="9.43122"/><trkpt lat="40.23383" lon="9.43121"/><trkpt lat="40.23392" lon="9.43112"/><trkpt lat="40.23414" lon="9.43107"/><trkpt lat="40.2342" lon="9.43096"/><trkpt lat="40.23416" lon="9.4309"/><trkpt lat="40.23409" lon="9.43088"/><trkpt lat="40.23406" lon="9.4308"/><trkpt lat="40.23408" lon="9.43074"/><trkpt lat="40.23414" lon="9.43071"/><trkpt lat="40.23434" lon="9.4307"/><trkpt lat="40.23438" lon="9.43063"/><trkpt lat="40.23430924039694" lon="9.430267357034314"/><trkpt lat="40.23430924040175" lon="9.430267357034316"/><trkpt lat="40.2343" lon="9.43022"/><trkpt lat="40.23433" lon="9.43004"/><trkpt lat="40.23459" lon="9.42989"/><trkpt lat="40.23469" lon="9.42972"/><trkpt lat="40.23496" lon="9.42959"/><trkpt lat="40.23502" lon="9.42943"/><trkpt lat="40.23503" lon="9.42894"/><trkpt lat="40.2352" lon="9.42831"/><trkpt lat="40.23541" lon="9.42782"/><trkpt lat="40.23546" lon="9.42758"/><trkpt lat="40.23546" lon="9.42758"/><trkpt lat="40.23552" lon="9.42739"/><trkpt lat="40.23602" lon="9.42652"/><trkpt lat="40.23621" lon="9.42646"/><trkpt lat="40.23642" lon="9.42643"/><trkpt lat="40.23676" lon="9.42654"/><trkpt lat="40.23693" lon="9.42654"/><trkpt lat="40.23717" lon="9.42663"/><trkpt lat="40.23741" lon="9.42662"/><trkpt lat="40.23776" lon="9.4265"/><trkpt lat="40.23802" lon="9.42627"/><trkpt lat="40.23802" lon="9.42627"/><trkpt lat="40.23832" lon="9.42603"/><trkpt lat="40.23841" lon="9.42599"/><trkpt lat="40.2387" lon="9.42595"/><trkpt lat="40.23883" lon="9.42595"/><trkpt lat="40.23924" lon="9.4261"/><trkpt lat="40.23942" lon="9.42627"/><trkpt lat="40.23942" lon="9.42627"/><trkpt lat="40.23961" lon="9.42673"/><trkpt lat="40.23973" lon="9.42691"/><trkpt lat="40.23973" lon="9.42691"/><trkpt lat="40.24013" lon="9.42697"/><trkpt lat="40.24034" lon="9.42683"/><trkpt lat="40.24045" lon="9.42682"/><trkpt lat="40.24057" lon="9.42684"/><trkpt lat="40.2407" lon="9.42692"/><trkpt lat="40.24089" lon="9.4269"/><trkpt lat="40.24109" lon="9.42679"/><trkpt lat="40.24119" lon="9.42678"/><trkpt lat="40.24141" lon="9.42663"/><trkpt lat="40.24159" lon="9.42663"/><trkpt lat="40.24167" lon="9.42644"/><trkpt lat="40.24193" lon="9.42627"/><trkpt lat="40.24193" lon="9.42627"/><trkpt lat="40.24278" lon="9.42498"/><trkpt lat="40.24284" lon="9.42475"/><trkpt lat="40.24312" lon="9.42452"/><trkpt lat="40.24318" lon="9.42445"/><trkpt lat="40.2432" lon="9.42431"/><trkpt lat="40.2432" lon="9.42431"/><trkpt lat="40.24335" lon="9.42377"/><trkpt lat="40.2441" lon="9.42299"/><trkpt lat="40.24434" lon="9.42259"/><trkpt lat="40.24465" lon="9.4224"/><trkpt lat="40.24481" lon="9.42237"/><trkpt lat="40.24500897466531" lon="9.422379948733267"/><trkpt lat="40.2450089746668" lon="9.422379948733266"/><trkpt lat="40.24501" lon="9.42238"/><trkpt lat="40.24503" lon="9.42235"/><trkpt lat="40.24537" lon="9.42226"/><trkpt lat="40.24547" lon="9.42228"/><trkpt lat="40.24571" lon="9.42222"/><trkpt lat="40.24599" lon="9.42203"/><trkpt lat="40.24599" lon="9.42203"/><trkpt lat="40.24609" lon="9.422"/><trkpt lat="40.24632" lon="9.42206"/><trkpt lat="40.24653" lon="9.42207"/><trkpt lat="40.24729" lon="9.42186"/><trkpt lat="40.24729" lon="9.42186"/><trkpt lat="40.2477" lon="9.42191"/><trkpt lat="40.24798" lon="9.4219"/><trkpt lat="40.24805" lon="9.42183"/><trkpt lat="40.24816" lon="9.42152"/><trkpt lat="40.24828" lon="9.42149"/><trkpt lat="40.24871" lon="9.42149"/><trkpt lat="40.24879" lon="9.42144"/><trkpt lat="40.24887834247652" lon="9.421236132945758"/><trkpt lat="40.24887834247652" lon="9.421236132945758"/><trkpt lat="40.24892" lon="9.42114"/><trkpt lat="40.24911" lon="9.42101"/><trkpt lat="40.24939" lon="9.42067"/><trkpt lat="40.24959" lon="9.42032"/><trkpt lat="40.24982" lon="9.42009"/><trkpt lat="40.24987" lon="9.41998"/><trkpt lat="40.24993" lon="9.41976"/><trkpt lat="40.24999" lon="9.41967"/><trkpt lat="40.25021" lon="9.41949"/><trkpt lat="40.25045" lon="9.41909"/><trkpt lat="40.25045" lon="9.41909"/><trkpt lat="40.25058" lon="9.41879"/><trkpt lat="40.25058" lon="9.41879"/><trkpt lat="40.25087" lon="9.41849"/><trkpt lat="40.25112" lon="9.4183"/><trkpt lat="40.25139" lon="9.41818"/><trkpt lat="40.25151" lon="9.41817"/><trkpt lat="40.25173" lon="9.41825"/><trkpt lat="40.25217" lon="9.41847"/><trkpt lat="40.2525" lon="9.41857"/><trkpt lat="40.25324" lon="9.41886"/><trkpt lat="40.25354" lon="9.41884"/><trkpt lat="40.25354" lon="9.41884"/><trkpt lat="40.25354" lon="9.41892"/><trkpt lat="40.25381" lon="9.41932"/><trkpt lat="40.254" lon="9.41971"/><trkpt lat="40.2542" lon="9.41994"/><trkpt lat="40.254691302253164" lon="9.42029692898734"/><trkpt lat="40.254691302253164" lon="9.42029692898734"/><trkpt lat="40.25537" lon="9.42079"/><trkpt lat="40.25537" lon="9.42079"/><trkpt lat="40.25549567678432" lon="9.42090806000951"/><trkpt lat="40.25549567678432" lon="9.42090806000951"/><trkpt lat="40.2557" lon="9.4211"/><trkpt lat="40.25590022985551" lon="9.421085349034962"/><trkpt lat="40.25590022985551" lon="9.421085349034962"/><trkpt lat="40.25611" lon="9.42107"/><trkpt lat="40.25625" lon="9.42109"/><trkpt lat="40.256251498195056" lon="9.421093745487624"/><trkpt lat="40.25625149819524" lon="9.421093745487623"/><trkpt lat="40.25627" lon="9.42114"/><trkpt lat="40.25627" lon="9.42114"/><trkpt lat="40.25627" lon="9.42114"/><trkpt lat="40.25625" lon="9.4213"/><trkpt lat="40.25614" lon="9.4214"/><trkpt lat="40.25614" lon="9.42154"/><trkpt lat="40.25622" lon="9.42159"/><trkpt lat="40.25679" lon="9.42159"/><trkpt lat="40.25702" lon="9.42164"/><trkpt lat="40.25703646708571" lon="9.421672934171424"/><trkpt lat="40.25703646708571" lon="9.421672934171424"/><trkpt lat="40.25705" lon="9.4217"/><trkpt lat="40.25705" lon="9.42176"/><trkpt lat="40.25705" lon="9.42176"/><trkpt lat="40.25725" lon="9.42179"/><trkpt lat="40.25742" lon="9.42188"/><trkpt lat="40.25766" lon="9.42206"/><trkpt lat="40.25794" lon="9.42214"/><trkpt lat="40.25817" lon="9.42226"/><trkpt lat="40.25839" lon="9.42233"/><trkpt lat="40.2585" lon="9.42242"/><trkpt lat="40.25862" lon="9.42242"/><trkpt lat="40.25901" lon="9.42231"/><trkpt lat="40.25913" lon="9.42223"/><trkpt lat="40.25921" lon="9.42215"/><trkpt lat="40.25935" lon="9.42213"/><trkpt lat="40.25947" lon="9.42191"/><trkpt lat="40.25953" lon="9.42185"/><trkpt lat="40.26028" lon="9.4215"/><trkpt lat="40.26039" lon="9.42142"/><trkpt lat="40.26048" lon="9.42133"/><trkpt lat="40.26067" lon="9.42123"/><trkpt lat="40.2607" lon="9.42118"/><trkpt lat="40.26071" lon="9.42094"/><trkpt lat="40.26075" lon="9.42085"/><trkpt lat="40.26084" lon="9.42087"/><trkpt lat="40.2609" lon="9.42091"/><trkpt lat="40.26102" lon="9.42126"/><trkpt lat="40.2611" lon="9.42126"/><trkpt lat="40.26116" lon="9.4212"/><trkpt lat="40.26121" lon="9.42111"/><trkpt lat="40.26124" lon="9.42089"/><trkpt lat="40.2613" lon="9.42075"/><trkpt lat="40.26136" lon="9.42075"/><trkpt lat="40.2615" lon="9.42098"/><trkpt lat="40.26151" lon="9.42112"/><trkpt lat="40.26146" lon="9.42145"/><trkpt lat="40.26148" lon="9.42155"/><trkpt lat="40.26155" lon="9.42168"/><trkpt lat="40.26162" lon="9.42177"/><trkpt lat="40.26167" lon="9.4217"/><trkpt lat="40.26173" lon="9.4215"/><trkpt lat="40.26182" lon="9.42135"/><trkpt lat="40.26184" lon="9.42116"/><trkpt lat="40.26188" lon="9.42105"/><trkpt lat="40.26195" lon="9.42094"/><trkpt lat="40.262" lon="9.42092"/><trkpt lat="40.26207" lon="9.42109"/><trkpt lat="40.26206" lon="9.42122"/><trkpt lat="40.26208" lon="9.42138"/><trkpt lat="40.26218" lon="9.42153"/><trkpt lat="40.2624" lon="9.42166"/><trkpt lat="40.26247" lon="9.42155"/><trkpt lat="40.26251" lon="9.42119"/><trkpt lat="40.26263" lon="9.4212"/><trkpt lat="40.26269" lon="9.42134"/><trkpt lat="40.26276" lon="9.42143"/><trkpt lat="40.26276" lon="9.42143"/><trkpt lat="40.26291" lon="9.42153"/><trkpt lat="40.26291" lon="9.42153"/><trkpt lat="40.26297" lon="9.42152"/><trkpt lat="40.263" lon="9.42146"/><trkpt lat="40.26318" lon="9.42138"/><trkpt lat="40.26325" lon="9.42132"/><trkpt lat="40.26357" lon="9.42135"/><trkpt lat="40.26379" lon="9.42126"/><trkpt lat="40.26379" lon="9.42126"/><trkpt lat="40.26401" lon="9.42126"/><trkpt lat="40.2644" lon="9.42158"/><trkpt lat="40.26503" lon="9.42184"/><trkpt lat="40.26552" lon="9.42188"/><trkpt lat="40.2661" lon="9.42177"/><trkpt lat="40.26657" lon="9.42233"/><trkpt lat="40.2669" lon="9.42234"/><trkpt lat="40.26739" lon="9.42213"/><trkpt lat="40.26766" lon="9.42182"/><trkpt lat="40.26848" lon="9.42201"/><trkpt lat="40.26886" lon="9.42224"/><trkpt lat="40.26926" lon="9.4224"/><trkpt lat="40.26944" lon="9.42257"/><trkpt lat="40.26944" lon="9.42257"/><trkpt lat="40.26946" lon="9.42245"/><trkpt lat="40.26938436111548" lon="9.422180536345966"/><trkpt lat="40.26937716580274" lon="9.422154903044323"/><trkpt lat="40.2693" lon="9.42188"/><trkpt lat="40.26927" lon="9.42163"/><trkpt lat="40.26913" lon="9.42137"/><trkpt lat="40.2688" lon="9.42096"/><trkpt lat="40.26865" lon="9.42053"/><trkpt lat="40.26854" lon="9.42038"/><trkpt lat="40.26796" lon="9.42003"/><trkpt lat="40.26804" lon="9.41953"/><trkpt lat="40.26804" lon="9.41933"/><trkpt lat="40.26817" lon="9.41861"/><trkpt lat="40.26822" lon="9.41848"/><trkpt lat="40.26852" lon="9.4183"/><trkpt lat="40.26858" lon="9.41821"/><trkpt lat="40.2686" lon="9.41811"/><trkpt lat="40.26869" lon="9.41785"/><trkpt lat="40.26879" lon="9.41776"/><trkpt lat="40.269" lon="9.41769"/><trkpt lat="40.26908" lon="9.41761"/><trkpt lat="40.26914" lon="9.41744"/><trkpt lat="40.26912" lon="9.41733"/><trkpt lat="40.26905" lon="9.41719"/><trkpt lat="40.26906" lon="9.41709"/><trkpt lat="40.26906" lon="9.41709"/><trkpt lat="40.26906" lon="9.41709"/><trkpt lat="40.26979" lon="9.41726"/><trkpt lat="40.26979" lon="9.41726"/><trkpt lat="40.26979" lon="9.41726"/><trkpt lat="40.26989" lon="9.41717"/><trkpt lat="40.26996" lon="9.41693"/><trkpt lat="40.26949" lon="9.4164"/><trkpt lat="40.26950733852331" lon="9.416237565242312"/><trkpt lat="40.26950733852331" lon="9.416237565242312"/><trkpt lat="40.26968" lon="9.41462"/><trkpt lat="40.26961" lon="9.41427"/><trkpt lat="40.26951" lon="9.41404"/><trkpt lat="40.26952" lon="9.41396"/><trkpt lat="40.26967" lon="9.41378"/><trkpt lat="40.26985" lon="9.41318"/><trkpt lat="40.26992" lon="9.41283"/><trkpt lat="40.26996" lon="9.41228"/><trkpt lat="40.27002" lon="9.41204"/><trkpt lat="40.27002" lon="9.41204"/><trkpt lat="40.26986" lon="9.41173"/><trkpt lat="40.26971" lon="9.41148"/><trkpt lat="40.26961" lon="9.4112"/><trkpt lat="40.26959" lon="9.41103"/><trkpt lat="40.26965" lon="9.41088"/><trkpt lat="40.2698" lon="9.40995"/><trkpt lat="40.27" lon="9.4095"/><trkpt lat="40.27" lon="9.4095"/><trkpt lat="40.26969651727918" lon="9.409141338602666"/></trkseg></trk></gpx>